{"type": "FeatureCollection", "features": [ {"type": "Feature", "properties": {"norad_id": 39122, "name": "EUTELSAT 117 WEST A", "group": "eutelsat", "lat": 0.04595463406686774, "lon": 57.75864684121244, "alt_km": 35794.82627764883, "timestamp": "2025-12-20T05:41:49.689602+00:00", "meta": {"OBJECT_NAME": "EUTELSAT 117 WEST A", "OBJECT_ID": "2013-012A", "EPOCH": "2025-12-19T12:21:38.812320", "MEAN_MOTION": 1.00274631, "ECCENTRICITY": 0.0002807, "INCLINATION": 0.032, "RA_OF_ASC_NODE": 299.7491, "ARG_OF_PERICENTER": 334.4616, "MEAN_ANOMALY": 242.7738, "EPHEMERIS_TYPE": 0, "CLASSIFICATION_TYPE": "U", "NORAD_CAT_ID": 39122, "ELEMENT_SET_NO": 999, "REV_AT_EPOCH": 4663, "BSTAR": 0, "MEAN_MOTION_DOT": 1.1e-07, "MEAN_MOTION_DDOT": 0}, "tle": {"line1": "1 39122U 13012A   25353.51503255  .00000011  00000+0  00000+0 0  9998", "line2": "2 39122   0.0320 299.7491 0002807 334.4616 242.7738  1.00274631 46635"}}, "geometry": {"type": "Point", "coordinates": [57.75864684121244, 0.04595463406686774]}}, {"type": "Feature", "properties": {"norad_id": 39163, "name": "EUTELSAT 7B", "group": "eutelsat", "lat": -0.008265061783931348, "lon": -178.51262881374552, "alt_km": 35800.2420238141, "timestamp": "2025-12-20T05:41:49.689614+00:00", "meta": {"OBJECT_NAME": "EUTELSAT 7B", "OBJECT_ID": "2013-022A", "EPOCH": "2025-12-19T06:26:58.431840", "MEAN_MOTION": 1.00270274, "ECCENTRICITY": 0.0004283, "INCLINATION": 0.0652, "RA_OF_ASC_NODE": 356.9078, "ARG_OF_PERICENTER": 324.8571, "MEAN_ANOMALY": 230.1004, "EPHEMERIS_TYPE": 0, "CLASSIFICATION_TYPE": "U", "NORAD_CAT_ID": 39163, "ELEMENT_SET_NO": 999, "REV_AT_EPOCH": 4614, "BSTAR": 0, "MEAN_MOTION_DOT": 7.3e-07, "MEAN_MOTION_DDOT": 0}, "tle": {"line1": "1 39163U 13022A   25353.26873185  .00000073  00000+0  00000+0 0  9996", "line2": "2 39163   0.0652 356.9078 0004283 324.8571 230.1004  1.00270274 46140"}}, "geometry": {"type": "Point", "coordinates": [-178.51262881374552, -0.008265061783931348]}}, {"type": "Feature", "properties": {"norad_id": 39612, "name": "EXPRESS-AT1", "group": "eutelsat", "lat": -0.03813407772607538, "lon": -129.49222068009672, "alt_km": 35787.9246873732, "timestamp": "2025-12-20T05:41:49.689627+00:00", "meta": {"OBJECT_NAME": "EXPRESS-AT1", "OBJECT_ID": "2014-010A", "EPOCH": "2025-12-19T13:31:46.041312", "MEAN_MOTION": 1.00270605, "ECCENTRICITY": 4.94e-05, "INCLINATION": 0.022, "RA_OF_ASC_NODE": 3.3546, "ARG_OF_PERICENTER": 88.7338, "MEAN_ANOMALY": 255.2488, "EPHEMERIS_TYPE": 0, "CLASSIFICATION_TYPE": "U", "NORAD_CAT_ID": 39612, "ELEMENT_SET_NO": 999, "REV_AT_EPOCH": 4301, "BSTAR": 0, "MEAN_MOTION_DOT": 0, "MEAN_MOTION_DDOT": 0}, "tle": {"line1": "1 39612U 14010A   25353.56372733  .00000000  00000+0  00000+0 0  9999", "line2": "2 39612   0.0220   3.3546 0000494  88.7338 255.2488  1.00270605 43015"}}, "geometry": {"type": "Point", "coordinates": [-129.49222068009672, -0.03813407772607538]}}, {"type": "Feature", "properties": {"norad_id": 39613, "name": "EXPRESS-AT2", "group": "eutelsat", "lat": -0.01184366150156422, "lon": -45.61740061676235, "alt_km": 35782.26394409745, "timestamp": "2025-12-20T05:41:49.689639+00:00", "meta": {"OBJECT_NAME": "EXPRESS-AT2", "OBJECT_ID": "2014-010B", "EPOCH": "2025-12-19T15:17:38.440608", "MEAN_MOTION": 1.00271653, "ECCENTRICITY": 0.00010236, "INCLINATION": 0.0167, "RA_OF_ASC_NODE": 316.7703, "ARG_OF_PERICENTER": 332.8216, "MEAN_ANOMALY": 168.1578, "EPHEMERIS_TYPE": 0, "CLASSIFICATION_TYPE": "U", "NORAD_CAT_ID": 39613, "ELEMENT_SET_NO": 999, "REV_AT_EPOCH": 4270, "BSTAR": 0, "MEAN_MOTION_DOT": -2.57e-06, "MEAN_MOTION_DDOT": 0}, "tle": {"line1": "1 39613U 14010B   25353.63725047 -.00000257  00000+0  00000+0 0  9993", "line2": "2 39613   0.0167 316.7703 0001023 332.8216 168.1578  1.00271653 42700"}}, "geometry": {"type": "Point", "coordinates": [-45.61740061676235, -0.01184366150156422]}}, {"type": "Feature", "properties": {"norad_id": 39773, "name": "EUTELSAT 3B", "group": "eutelsat", "lat": 0.006823724584888551, "lon": 177.57503882831932, "alt_km": 35775.82125550022, "timestamp": "2025-12-20T05:41:49.689651+00:00", "meta": {"OBJECT_NAME": "EUTELSAT 3B", "OBJECT_ID": "2014-030A", "EPOCH": "2025-12-19T13:16:47.475264", "MEAN_MOTION": 1.00272393, "ECCENTRICITY": 0.0004172, "INCLINATION": 0.0604, "RA_OF_ASC_NODE": 4.345, "ARG_OF_PERICENTER": 228.1768, "MEAN_ANOMALY": 58.1672, "EPHEMERIS_TYPE": 0, "CLASSIFICATION_TYPE": "U", "NORAD_CAT_ID": 39773, "ELEMENT_SET_NO": 999, "REV_AT_EPOCH": 4226, "BSTAR": 0, "MEAN_MOTION_DOT": 4.5e-07, "MEAN_MOTION_DDOT": 0}, "tle": {"line1": "1 39773U 14030A   25353.55332726  .00000045  00000+0  00000+0 0  9995", "line2": "2 39773   0.0604   4.3450 0004172 228.1768  58.1672  1.00272393 42265"}}, "geometry": {"type": "Point", "coordinates": [177.57503882831932, 0.006823724584888551]}}, {"type": "Feature", "properties": {"norad_id": 40425, "name": "EUTELSAT 115 WEST B", "group": "eutelsat", "lat": -0.010216857862432914, "lon": 59.637374281565236, "alt_km": 35786.141681557965, "timestamp": "2025-12-20T05:41:49.689662+00:00", "meta": {"OBJECT_NAME": "EUTELSAT 115 WEST B", "OBJECT_ID": "2015-010B", "EPOCH": "2025-12-19T12:08:14.383392", "MEAN_MOTION": 1.00273295, "ECCENTRICITY": 3.76e-05, "INCLINATION": 0.0143, "RA_OF_ASC_NODE": 153.4054, "ARG_OF_PERICENTER": 157.9495, "MEAN_ANOMALY": 204.1658, "EPHEMERIS_TYPE": 0, "CLASSIFICATION_TYPE": "U", "NORAD_CAT_ID": 40425, "ELEMENT_SET_NO": 999, "REV_AT_EPOCH": 3959, "BSTAR": 0, "MEAN_MOTION_DOT": -1e-08, "MEAN_MOTION_DDOT": 0}, "tle": {"line1": "1 40425U 15010B   25353.50572203 -.00000001  00000+0  00000+0 0  9994", "line2": "2 40425   0.0143 153.4054 0000376 157.9495 204.1658  1.00273295 39594"}}, "geometry": {"type": "Point", "coordinates": [59.637374281565236, -0.010216857862432914]}}, {"type": "Feature", "properties": {"norad_id": 40875, "name": "EUTELSAT 8 WEST B", "group": "eutelsat", "lat": 0.015203300233297787, "lon": 166.4796009315554, "alt_km": 35790.42704480815, "timestamp": "2025-12-20T05:41:49.689674+00:00", "meta": {"OBJECT_NAME": "EUTELSAT 8 WEST B", "OBJECT_ID": "2015-039B", "EPOCH": "2025-12-19T18:21:37.631232", "MEAN_MOTION": 1.00271041, "ECCENTRICITY": 0.00042783, "INCLINATION": 0.0634, "RA_OF_ASC_NODE": 356.5296, "ARG_OF_PERICENTER": 273.1926, "MEAN_ANOMALY": 86.3009, "EPHEMERIS_TYPE": 0, "CLASSIFICATION_TYPE": "U", "NORAD_CAT_ID": 40875, "ELEMENT_SET_NO": 999, "REV_AT_EPOCH": 3785, "BSTAR": 0, "MEAN_MOTION_DOT": -4.1e-07, "MEAN_MOTION_DDOT": 0}, "tle": {"line1": "1 40875U 15039B   25353.76501888 -.00000041  00000+0  00000+0 0  9997", "line2": "2 40875   0.0634 356.5296 0004278 273.1926  86.3009  1.00271041 37851"}}, "geometry": {"type": "Point", "coordinates": [166.4796009315554, 0.015203300233297787]}}, {"type": "Feature", "properties": {"norad_id": 41310, "name": "EUTELSAT 9B", "group": "eutelsat", "lat": 0.050921800433134726, "lon": -176.536719864364, "alt_km": 35786.326911886026, "timestamp": "2025-12-20T05:41:49.689686+00:00", "meta": {"OBJECT_NAME": "EUTELSAT 9B", "OBJECT_ID": "2016-005A", "EPOCH": "2025-12-19T18:26:29.664960", "MEAN_MOTION": 1.00272484, "ECCENTRICITY": 0.00044618, "INCLINATION": 0.0609, "RA_OF_ASC_NODE": 71.098, "ARG_OF_PERICENTER": 203.9311, "MEAN_ANOMALY": 99.1983, "EPHEMERIS_TYPE": 0, "CLASSIFICATION_TYPE": "U", "NORAD_CAT_ID": 41310, "ELEMENT_SET_NO": 999, "REV_AT_EPOCH": 3631, "BSTAR": 0, "MEAN_MOTION_DOT": 8.6e-07, "MEAN_MOTION_DDOT": 0}, "tle": {"line1": "1 41310U 16005A   25353.76839890  .00000086  00000+0  00000+0 0  9991", "line2": "2 41310   0.0609  71.0980 0004461 203.9311  99.1983  1.00272484 36315"}}, "geometry": {"type": "Point", "coordinates": [-176.536719864364, 0.050921800433134726]}}, {"type": "Feature", "properties": {"norad_id": 41382, "name": "EUTELSAT 65 WEST A", "group": "eutelsat", "lat": 0.05763786377394763, "lon": 109.30607386499686, "alt_km": 35793.915403806204, "timestamp": "2025-12-20T05:41:49.689703+00:00", "meta": {"OBJECT_NAME": "EUTELSAT 65 WEST A", "OBJECT_ID": "2016-014A", "EPOCH": "2025-12-19T11:38:39.170976", "MEAN_MOTION": 1.00274135, "ECCENTRICITY": 0.0002092, "INCLINATION": 0.0543, "RA_OF_ASC_NODE": 330.1482, "ARG_OF_PERICENTER": 300.8547, "MEAN_ANOMALY": 286.7795, "EPHEMERIS_TYPE": 0, "CLASSIFICATION_TYPE": "U", "NORAD_CAT_ID": 41382, "ELEMENT_SET_NO": 999, "REV_AT_EPOCH": 3573, "BSTAR": 0, "MEAN_MOTION_DOT": -2.52e-06, "MEAN_MOTION_DDOT": 0}, "tle": {"line1": "1 41382U 16014A   25353.48517559 -.00000252  00000+0  00000+0 0  9990", "line2": "2 41382   0.0543 330.1482 0002092 300.8547 286.7795  1.00274135 35738"}}, "geometry": {"type": "Point", "coordinates": [109.30607386499686, 0.05763786377394763]}}, {"type": "Feature", "properties": {"norad_id": 41589, "name": "EUTELSAT 117 WEST B", "group": "eutelsat", "lat": -0.010582343954717487, "lon": 57.54095293759554, "alt_km": 35786.46410183886, "timestamp": "2025-12-20T05:41:49.689733+00:00", "meta": {"OBJECT_NAME": "EUTELSAT 117 WEST B", "OBJECT_ID": "2016-038B", "EPOCH": "2025-12-19T12:07:15.989088", "MEAN_MOTION": 1.00271292, "ECCENTRICITY": 3.33e-05, "INCLINATION": 0.0139, "RA_OF_ASC_NODE": 154.0822, "ARG_OF_PERICENTER": 162.5919, "MEAN_ANOMALY": 196.5118, "EPHEMERIS_TYPE": 0, "CLASSIFICATION_TYPE": "U", "NORAD_CAT_ID": 41589, "ELEMENT_SET_NO": 999, "REV_AT_EPOCH": 3486, "BSTAR": 0, "MEAN_MOTION_DOT": 1.3e-07, "MEAN_MOTION_DDOT": 0}, "tle": {"line1": "1 41589U 16038B   25353.50504617  .00000013  00000+0  00000+0 0  9993", "line2": "2 41589   0.0139 154.0822 0000333 162.5919 196.5118  1.00271292 34862"}}, "geometry": {"type": "Point", "coordinates": [57.54095293759554, -0.010582343954717487]}}]}